#aV2011 11  3  0  0   .00000000      96 DD+AD WGS84 FIT  NGA
## 1660 345600.00000000   900.00000000 55868  .0000000000000
+   31     1  2  3  4  5  6  7  8  9 10 11 12 13 14 15 16 17
+         18 19 20 21 22 23 25 26 27 28 29 30 31 32  0  0  0
+          0  0  0  0  0  0  0  0  0  0  0  0  0  0  0  0  0
+          0  0  0  0  0  0  0  0  0  0  0  0  0  0  0  0  0
+          0  0  0  0  0  0  0  0  0  0  0  0  0  0  0  0  0
++         0  0  0  0  0  0  0  0  0  0  0  0  0  0  0  0  0
++         0  0  0  0  0  0  0  0  0  0  0  0  0  0  0  0  0
++         0  0  0  0  0  0  0  0  0  0  0  0  0  0  0  0  0
++         0  0  0  0  0  0  0  0  0  0  0  0  0  0  0  0  0
++         0  0  0  0  0  0  0  0  0  0  0  0  0  0  0  0  0
%c cc cc ccc ccc cccc cccc cccc cccc ccccc ccccc ccccc ccccc
%c cc cc ccc ccc cccc cccc cccc cccc ccccc ccccc ccccc ccccc
%f  0.0000000  0.000000000  0.00000000000  0.000000000000000
%f  0.0000000  0.000000000  0.00000000000  0.000000000000000
%i    0    0    0    0      0      0      0      0         0
%i    0    0    0    0      0      0      0      0         0
/*      NGA, ST. LOUIS,MO.                                  
/*   EPHEMERIS COMPUTED FROM  3 DAYS OF DATA                
/* CCCCCCCCCCCCCCCCCCCCCCCCCCCCCCCCCCCCCCCCCCCCCCCCCCCCCCCCC
/* CCCCCCCCCCCCCCCCCCCCCCCCCCCCCCCCCCCCCCCCCCCCCCCCCCCCCCCCC
*  2011 11  3  3 15   .00000000                                                 
P  1 -13288.406472  13782.250941  18393.235233     70.661072                    
V  1   -817.412602 -23424.043790  16950.880568       .239328                    
P  2  13952.854256  11741.650363 -19390.503392    363.787997                    
V  2  -1770.197379  24683.959471  13122.875173       .018179                    
P  3 -24468.355132 -10674.331032    692.965937    789.840880                    
V  3    211.076395  -3824.481629 -30842.719139       .051032                    
P  4   7460.916665  22758.885652 -11343.219226    279.359253                    
V  4  -3736.156759  14092.432161  26694.682164       .112993                    
P  5  21610.673170   1005.465170 -15507.228374   -240.162031                    
V  5 -16376.571302  11022.627780 -22007.696192      -.050154                    
P  6 -22576.115571 -14108.966596  -1910.735416    -38.252540                    
V  6   3881.364593  -1691.224910 -30916.654111       .062993                    
P  7  -6411.064867  24468.555976  -7661.754816     35.202424                    
V  7  -1918.856982  -9908.390603 -30206.810774       .021091                    
P  8  -1364.738626  26034.258062   3069.132015       .032978                    
V  8  -2591.232886   3582.870272 -32621.127498      -.000305                    
P  9  13540.854251  -9939.209373  20034.823017    115.881400                    
V  9    325.461545  26619.094496  12620.230460       .024780                    
P 10   5645.196214  14587.188818 -21677.444262    -17.990344                    
V 10 -24341.128758  11816.925132   2017.504827      -.010535                    
P 11 -15248.842124   7011.696994  20194.628560   -200.479509                    
V 11  -6818.291179 -25970.100265   4140.452559      -.034378                    
P 12  23721.903123 -11731.759812    271.420373     32.379272                    
V 12    796.627798   2331.546036  32229.648861       .023199                    
P 13  -7571.459924  12650.011884 -22225.302386    243.431734                    
V 13 -22277.661663 -16659.032323  -1983.676666      -.019418                    
P 14 -11635.617071 -19704.442957  13786.430264    179.570602                    
V 14  14815.069043   8706.185256  25131.917159       .016301                    
P 15  22010.868271    659.021156  14992.245382   -100.513913                    
V 15  15134.725495  11663.256138 -22561.265288       .011878                    
P 16 -21674.317934  -1149.904864 -15491.430963   -206.826305                    
V 16  16994.088744  -9757.814014 -22743.933679      -.020476                    
P 17  11200.808038  19609.465482  14315.674518    167.628771                    
V 17 -15852.372246  -8389.971733  23907.436872      -.018180                    
P 18  10891.106438 -18606.116326  15610.762858    165.225355                    
V 18  18544.269167  -6463.978968 -21468.310307       .018608                    
P 19 -22481.823634  -5160.211982  13453.644950   -200.885498                    
V 19 -12342.483836 -11860.129195 -24755.111048      -.039778                    
P 20 -22745.289135  13634.672827   -464.699686     55.429379                    
V 20  -2267.258761  -3060.586275  31143.655683       .006589                    
P 21   3598.610345 -25721.151557  -3270.012007   -182.010955                    
V 21   4040.244298   4962.305346 -31106.341882      -.024611                    
P 22  -3683.472054 -15846.259219  21161.975637    143.602240                    
V 22  23989.562573 -11502.846782  -4585.561296      -.003767                    
P 23 -16489.357392   5955.811302 -20030.074318    262.613637                    
V 23 -20817.581727 -14551.828004  12438.948233      -.032108                    
P 25  17781.813451 -17222.324439  -9609.100714     26.204804                    
V 25  11836.305561  -3703.693418  28644.040464       .015153                    
P 26  22799.258670  12788.586048   5147.890537   -212.630353                    
V 26   4732.980828   5728.349941 -31156.108794      -.133155                    
P 27  14987.770186  -2165.161587  22442.449060    321.674717                    
V 27    421.837533  26912.758805   2768.718027       .040140                    
P 28   -430.557363  16256.265532  21483.569464     80.922849                    
V 28 -23844.991652  10521.734119  -8902.871594       .032741                    
P 29   7829.609008 -13002.874196 -21734.181353    254.002435                    
V 29  22909.189222  15646.766638  -1066.941572       .034563                    
P 30  -4629.587864 -15232.235378 -21663.139096     57.060253                    
V 30  22393.748995 -14348.489941   5390.622950      -.073272                    
P 31  -8421.555278 -20593.200350 -14138.199572    164.153615                    
V 31   2827.065962 -18226.553196  24725.291208       .051948                    
P 32 -24920.681858   5086.201958   7037.109689   -355.632438                    
V 32   6793.087170  -6346.302949  30156.725778      -.060082                    
EOF
